start=new Date('2021-10-05T00:00:00.000Z').valueOf();
sats=[{"MEAN_MOTION_DOT":"-0.00000176","GP_ID":"186223793","PERIOD":"95.592","TLE_LINE2":"2 45221  53.0550  65.5031 0001708 108.4968 251.6207 15.06401650 91681","NORAD_CAT_ID":"45221","MEAN_ELEMENT_THEORY":"SGP4","REV_AT_EPOCH":"9168","OBJECT_TYPE":"PAYLOAD","MEAN_MOTION_DDOT":"0.0000000000000","CLASSIFICATION_TYPE":"U","ARG_OF_PERICENTER":"108.4968","MEAN_MOTION":"15.06401650","REF_FRAME":"TEME","RA_OF_ASC_NODE":"65.5031","SEMIMAJOR_AXIS":"6925.344","RCS_SIZE":"LARGE","ECCENTRICITY":"0.00017080","LAUNCH_DATE":"2020-02-17","PERIAPSIS":"546.026","TIME_SYSTEM":"UTC","APOAPSIS":"548.391","ELEMENT_SET_NO":"999","CENTER_NAME":"EARTH","TLE_LINE1":"1 45221U 20012AV  21277.71470432 -.00000176  00000-0  71014-5 0  9999","EPHEMERIS_TYPE":"0","SITE":"AFETR","INCLINATION":"53.0550","OBJECT_ID":"2020-012AV","COUNTRY_CODE":"US","FILE":"3144803","BSTAR":"0.00000710140000","MEAN_ANOMALY":"251.6207","OBJECT_NAME":"STARLINK-1189","DECAY_DATE":null,"EPOCH":"2021-10-04T17:09:10.453248"},{"SEMIMAJOR_AXIS":"6925.339","RCS_SIZE":"LARGE","PERIAPSIS":"545.560","LAUNCH_DATE":"2020-02-17","ECCENTRICITY":"0.00023730","APOAPSIS":"548.847","TIME_SYSTEM":"UTC","PERIOD":"95.592","TLE_LINE2":"2 45222  53.0560  69.3471 0002373  93.7452 266.3809 15.06403199 91553","NORAD_CAT_ID":"45222","MEAN_MOTION_DOT":"-0.00000422","GP_ID":"186224045","MEAN_ELEMENT_THEORY":"SGP4","REV_AT_EPOCH":"9155","MEAN_MOTION_DDOT":"0.0000000000000","OBJECT_TYPE":"PAYLOAD","REF_FRAME":"TEME","RA_OF_ASC_NODE":"69.3471","CLASSIFICATION_TYPE":"U","MEAN_MOTION":"15.06403199","ARG_OF_PERICENTER":"93.7452","COUNTRY_CODE":"US","BSTAR":"-0.00000943510000","FILE":"3144803","OBJECT_NAME":"STARLINK-1191","DECAY_DATE":null,"MEAN_ANOMALY":"266.3809","EPOCH":"2021-10-03T20:37:46.900704","ELEMENT_SET_NO":"999","CENTER_NAME":"EARTH","TLE_LINE1":"1 45222U 20012AW  21276.85957061 -.00000422  00000-0 -94351-5 0  9996","INCLINATION":"53.0560","OBJECT_ID":"2020-012AW","SITE":"AFETR","EPHEMERIS_TYPE":"0"},{"MEAN_ELEMENT_THEORY":"SGP4","REV_AT_EPOCH":"9169","MEAN_MOTION_DOT":"-0.00000771","GP_ID":"186224792","TLE_LINE2":"2 45223  53.0548  65.3801 0001749 103.0166 257.1018 15.06392316 91699","PERIOD":"95.593","NORAD_CAT_ID":"45223","CLASSIFICATION_TYPE":"U","MEAN_MOTION":"15.06392316","ARG_OF_PERICENTER":"103.0166","REF_FRAME":"TEME","RA_OF_ASC_NODE":"65.3801","OBJECT_TYPE":"PAYLOAD","MEAN_MOTION_DDOT":"0.0000000000000","RCS_SIZE":"LARGE","SEMIMAJOR_AXIS":"6925.372","TIME_SYSTEM":"UTC","APOAPSIS":"548.448","LAUNCH_DATE":"2020-02-17","PERIAPSIS":"546.026","ECCENTRICITY":"0.00017490","CENTER_NAME":"EARTH","ELEMENT_SET_NO":"999","SITE":"AFETR","EPHEMERIS_TYPE":"0","INCLINATION":"53.0548","OBJECT_ID":"2020-012AX","TLE_LINE1":"1 45223U 20012AX  21277.74420540 -.00000771  00000-0 -32845-4 0  9999","FILE":"3144803","BSTAR":"-0.00003284500000","COUNTRY_CODE":"US","EPOCH":"2021-10-04T17:51:39.346560","MEAN_ANOMALY":"257.1018","OBJECT_NAME":"STARLINK-1212","DECAY_DATE":null},{"MEAN_MOTION_DDOT":"0.0000000000000","OBJECT_TYPE":"PAYLOAD","REF_FRAME":"TEME","RA_OF_ASC_NODE":"11.2299","CLASSIFICATION_TYPE":"U","MEAN_MOTION":"15.67931222","ARG_OF_PERICENTER":"284.5220","PERIOD":"91.841","TLE_LINE2":"2 45224  53.0508  11.2299 0008403 284.5220  75.4863 15.67931222 92330","NORAD_CAT_ID":"45224","MEAN_MOTION_DOT":"-0.00005628","GP_ID":"186223543","MEAN_ELEMENT_THEORY":"SGP4","REV_AT_EPOCH":"9233","LAUNCH_DATE":"2020-02-17","ECCENTRICITY":"0.00084030","PERIAPSIS":"359.158","APOAPSIS":"370.490","TIME_SYSTEM":"UTC","SEMIMAJOR_AXIS":"6742.959","RCS_SIZE":"LARGE","TLE_LINE1":"1 45224U 20012AY  21277.77140576 -.00005628  00000-0 -44725-4 0  9997","INCLINATION":"53.0508","OBJECT_ID":"2020-012AY","EPHEMERIS_TYPE":"0","SITE":"AFETR","ELEMENT_SET_NO":"999","CENTER_NAME":"EARTH","DECAY_DATE":null,"OBJECT_NAME":"STARLINK-1214","MEAN_ANOMALY":"75.4863","EPOCH":"2021-10-04T18:30:49.457664","COUNTRY_CODE":"US","BSTAR":"-0.00004472500000","FILE":"3144803"},{"MEAN_MOTION_DDOT":"0.0000000000000","OBJECT_TYPE":"PAYLOAD","RA_OF_ASC_NODE":"64.9825","REF_FRAME":"TEME","MEAN_MOTION":"15.06394020","ARG_OF_PERICENTER":"93.6889","CLASSIFICATION_TYPE":"U","NORAD_CAT_ID":"45225","PERIOD":"95.593","TLE_LINE2":"2 45225  53.0544  64.9825 0001876  93.6889 266.4314 15.06394020 91657","GP_ID":"186223294","MEAN_MOTION_DOT":"-0.00000478","MEAN_ELEMENT_THEORY":"SGP4","REV_AT_EPOCH":"9165","PERIAPSIS":"545.933","LAUNCH_DATE":"2020-02-17","ECCENTRICITY":"0.00018760","APOAPSIS":"548.531","TIME_SYSTEM":"UTC","SEMIMAJOR_AXIS":"6925.367","RCS_SIZE":"LARGE","TLE_LINE1":"1 45225U 20012AZ  21277.82897962 -.00000478  00000-0 -13161-4 0  9990","OBJECT_ID":"2020-012AZ","INCLINATION":"53.0544","EPHEMERIS_TYPE":"0","SITE":"AFETR","ELEMENT_SET_NO":"999","CENTER_NAME":"EARTH","DECAY_DATE":null,"OBJECT_NAME":"STARLINK-1215","MEAN_ANOMALY":"266.4314","EPOCH":"2021-10-04T19:53:43.839168","COUNTRY_CODE":"US","BSTAR":"-0.00001316100000","FILE":"3144803"},{"MEAN_MOTION_DDOT":"0.0000000000000","OBJECT_TYPE":"PAYLOAD","REF_FRAME":"TEME","RA_OF_ASC_NODE":"64.9533","CLASSIFICATION_TYPE":"U","MEAN_MOTION":"15.06401005","ARG_OF_PERICENTER":"103.4368","PERIOD":"95.592","TLE_LINE2":"2 45226  53.0553  64.9533 0002135 103.4368 256.6859 15.06401005 91618","NORAD_CAT_ID":"45226","MEAN_MOTION_DOT":"0.00000293","GP_ID":"186224545","MEAN_ELEMENT_THEORY":"SGP4","REV_AT_EPOCH":"9161","LAUNCH_DATE":"2020-02-17","PERIAPSIS":"545.732","ECCENTRICITY":"0.00021350","APOAPSIS":"548.689","TIME_SYSTEM":"UTC","SEMIMAJOR_AXIS":"6925.345","RCS_SIZE":"LARGE","TLE_LINE1":"1 45226U 20012BA  21277.83634450  .00000293  00000-0  38588-4 0  9996","INCLINATION":"53.0553","OBJECT_ID":"2020-012BA","SITE":"AFETR","EPHEMERIS_TYPE":"0","ELEMENT_SET_NO":"999","CENTER_NAME":"EARTH","DECAY_DATE":null,"OBJECT_NAME":"STARLINK-1217","MEAN_ANOMALY":"256.6859","EPOCH":"2021-10-04T20:04:20.164800","COUNTRY_CODE":"US","BSTAR":"0.00003858800000","FILE":"3144803"},{"SEMIMAJOR_AXIS":"6925.361","RCS_SIZE":"LARGE","LAUNCH_DATE":"2020-02-17","PERIAPSIS":"546.042","ECCENTRICITY":"0.00017090","TIME_SYSTEM":"UTC","APOAPSIS":"548.409","GP_ID":"186224293","MEAN_MOTION_DOT":"-0.00000258","NORAD_CAT_ID":"45227","PERIOD":"95.592","TLE_LINE2":"2 45227  53.0565  65.1676 0001709  97.4677 262.6506 15.06396096 91613","MEAN_ELEMENT_THEORY":"SGP4","REV_AT_EPOCH":"9161","OBJECT_TYPE":"PAYLOAD","MEAN_MOTION_DDOT":"0.0000000000000","MEAN_MOTION":"15.06396096","ARG_OF_PERICENTER":"97.4677","CLASSIFICATION_TYPE":"U","RA_OF_ASC_NODE":"65.1676","REF_FRAME":"TEME","COUNTRY_CODE":"US","FILE":"3144803","BSTAR":"0.00000156340000","MEAN_ANOMALY":"262.6506","DECAY_DATE":null,"OBJECT_NAME":"STARLINK-1221","EPOCH":"2021-10-04T19:00:38.996928","ELEMENT_SET_NO":"999","CENTER_NAME":"EARTH","TLE_LINE1":"1 45227U 20012BB  21277.79211802 -.00000258  00000-0  15634-5 0  9994","EPHEMERIS_TYPE":"0","SITE":"AFETR","OBJECT_ID":"2020-012BB","INCLINATION":"53.0565"},{"TIME_SYSTEM":"UTC","APOAPSIS":"548.425","PERIAPSIS":"546.007","LAUNCH_DATE":"2020-02-17","ECCENTRICITY":"0.00017460","RCS_SIZE":"LARGE","SEMIMAJOR_AXIS":"6925.351","ARG_OF_PERICENTER":"101.8702","MEAN_MOTION":"15.06399294","CLASSIFICATION_TYPE":"U","RA_OF_ASC_NODE":"64.8351","REF_FRAME":"TEME","OBJECT_TYPE":"PAYLOAD","MEAN_MOTION_DDOT":"0.0000000000000","MEAN_ELEMENT_THEORY":"SGP4","REV_AT_EPOCH":"9159","GP_ID":"186223044","MEAN_MOTION_DOT":"-0.00000009","NORAD_CAT_ID":"45228","PERIOD":"95.592","TLE_LINE2":"2 45228  53.0549  64.8351 0001746 101.8702 258.2483 15.06399294 91597","EPOCH":"2021-10-04T20:41:29.794560","MEAN_ANOMALY":"258.2483","DECAY_DATE":null,"OBJECT_NAME":"STARLINK-1222","FILE":"3144803","BSTAR":"0.00001830500000","COUNTRY_CODE":"US","SITE":"AFETR","EPHEMERIS_TYPE":"0","OBJECT_ID":"2020-012BC","INCLINATION":"53.0549","TLE_LINE1":"1 45228U 20012BC  21277.86215040 -.00000009  00000-0  18305-4 0  9992","CENTER_NAME":"EARTH","ELEMENT_SET_NO":"999"},{"PERIAPSIS":"546.055","LAUNCH_DATE":"2020-02-17","ECCENTRICITY":"0.00016890","TIME_SYSTEM":"UTC","APOAPSIS":"548.395","SEMIMAJOR_AXIS":"6925.360","RCS_SIZE":"LARGE","OBJECT_TYPE":"PAYLOAD","MEAN_MOTION_DDOT":"0.0000000000000","MEAN_MOTION":"15.06396300","ARG_OF_PERICENTER":"94.8822","CLASSIFICATION_TYPE":"U","RA_OF_ASC_NODE":"65.2910","REF_FRAME":"TEME","GP_ID":"186223794","MEAN_MOTION_DOT":"-0.00000453","NORAD_CAT_ID":"45229","TLE_LINE2":"2 45229  53.0561  65.2910 0001689  94.8822 265.2360 15.06396300 91584","PERIOD":"95.592","MEAN_ELEMENT_THEORY":"SGP4","REV_AT_EPOCH":"9158","MEAN_ANOMALY":"265.2360","DECAY_DATE":null,"OBJECT_NAME":"STARLINK-1226","EPOCH":"2021-10-04T18:12:52.840224","COUNTRY_CODE":"US","FILE":"3144803","BSTAR":"-0.00001152800000","TLE_LINE1":"1 45229U 20012BD  21277.75894491 -.00000453  00000-0 -11528-4 0  9998","EPHEMERIS_TYPE":"0","SITE":"AFETR","OBJECT_ID":"2020-012BD","INCLINATION":"53.0561","ELEMENT_SET_NO":"999","CENTER_NAME":"EARTH"},{"EPOCH":"2021-10-04T16:32:02.061600","OBJECT_NAME":"STARLINK-1227","DECAY_DATE":null,"MEAN_ANOMALY":"254.1741","BSTAR":"0.00002994800000","FILE":"3144803","COUNTRY_CODE":"US","INCLINATION":"53.0551","OBJECT_ID":"2020-012BE","SITE":"AFETR","EPHEMERIS_TYPE":"0","TLE_LINE1":"1 45230U 20012BE  21277.68891275  .00000164  00000-0  29948-4 0  9991","CENTER_NAME":"EARTH","ELEMENT_SET_NO":"999","APOAPSIS":"548.455","TIME_SYSTEM":"UTC","LAUNCH_DATE":"2020-02-17","ECCENTRICITY":"0.00017700","PERIAPSIS":"546.004","RCS_SIZE":"LARGE","SEMIMAJOR_AXIS":"6925.365","REF_FRAME":"TEME","RA_OF_ASC_NODE":"65.6154","CLASSIFICATION_TYPE":"U","MEAN_MOTION":"15.06394770","ARG_OF_PERICENTER":"105.9443","MEAN_MOTION_DDOT":"0.0000000000000","OBJECT_TYPE":"PAYLOAD","MEAN_ELEMENT_THEORY":"SGP4","REV_AT_EPOCH":"9169","TLE_LINE2":"2 45230  53.0551  65.6154 0001770 105.9443 254.1741 15.06394770 91694","PERIOD":"95.592","NORAD_CAT_ID":"45230","MEAN_MOTION_DOT":"0.00000164","GP_ID":"186224046"}];
